start=new Date('2021-09-10T00:00:00.000Z').valueOf();
sats=[{"REF_FRAME":"TEME","BSTAR":"-0.00002265000000","OBJECT_NAME":"STARLINK-1716","CENTER_NAME":"EARTH","TLE_LINE1":"1 46672U 20073C   21252.87009893 -.00000619  00000-0 -22650-4 0  9990","MEAN_MOTION_DDOT":"0.0000000000000","LAUNCH_DATE":"2020-10-18","PERIAPSIS":"545.843","PERIOD":"95.592","SEMIMAJOR_AXIS":"6925.357","TLE_LINE2":"2 46672  53.0547  52.0347 0001990  92.1250 267.9966 15.06397370 49672","OBJECT_TYPE":"PAYLOAD","MEAN_MOTION_DOT":"-0.00000619","MEAN_ELEMENT_THEORY":"SGP4","ARG_OF_PERICENTER":"92.1250","ELEMENT_SET_NO":"999","FILE":"3111873","GP_ID":"184408112","MEAN_ANOMALY":"267.9966","APOAPSIS":"548.600","ECCENTRICITY":"0.00019900","MEAN_MOTION":"15.06397370","RA_OF_ASC_NODE":"52.0347","TIME_SYSTEM":"UTC","OBJECT_ID":"2020-073C","RCS_SIZE":"LARGE","COUNTRY_CODE":"US","EPOCH":"2021-09-09T20:52:56.547552","INCLINATION":"53.0547","NORAD_CAT_ID":"46672","SITE":"AFETR","DECAY_DATE":null,"EPHEMERIS_TYPE":"0","CLASSIFICATION_TYPE":"U","REV_AT_EPOCH":"4967"},{"FILE":"3111873","GP_ID":"184408864","APOAPSIS":"548.350","MEAN_ANOMALY":"258.2822","ECCENTRICITY":"0.00016330","MEAN_MOTION":"15.06398279","RA_OF_ASC_NODE":"67.1749","TIME_SYSTEM":"UTC","OBJECT_ID":"2020-073D","RCS_SIZE":"LARGE","EPOCH":"2021-09-09T20:09:46.837152","COUNTRY_CODE":"US","INCLINATION":"53.0553","NORAD_CAT_ID":"46673","SITE":"AFETR","EPHEMERIS_TYPE":"0","DECAY_DATE":null,"CLASSIFICATION_TYPE":"U","REV_AT_EPOCH":"4945","REF_FRAME":"TEME","BSTAR":"-0.00002884800000","OBJECT_NAME":"STARLINK-1717","CENTER_NAME":"EARTH","TLE_LINE1":"1 46673U 20073D   21252.84012543 -.00000711  00000-0 -28848-4 0  9992","MEAN_MOTION_DDOT":"0.0000000000000","LAUNCH_DATE":"2020-10-18","PERIAPSIS":"546.088","PERIOD":"95.592","SEMIMAJOR_AXIS":"6925.354","TLE_LINE2":"2 46673  53.0553  67.1749 0001633 101.8351 258.2822 15.06398279 49456","MEAN_MOTION_DOT":"-0.00000711","MEAN_ELEMENT_THEORY":"SGP4","OBJECT_TYPE":"PAYLOAD","ARG_OF_PERICENTER":"101.8351","ELEMENT_SET_NO":"999"},{"ARG_OF_PERICENTER":"89.4272","MEAN_MOTION_DOT":"0.00001227","MEAN_ELEMENT_THEORY":"SGP4","OBJECT_TYPE":"PAYLOAD","ELEMENT_SET_NO":"999","PERIAPSIS":"546.002","TLE_LINE2":"2 46674  53.0553  54.0065 0001740  89.4272 270.6917 15.06402296 50084","SEMIMAJOR_AXIS":"6925.342","PERIOD":"95.592","MEAN_MOTION_DDOT":"0.0000000000000","LAUNCH_DATE":"2020-10-18","BSTAR":"0.00010127000000","REF_FRAME":"TEME","TLE_LINE1":"1 46674U 20073E   21252.43146613  .00001227  00000-0  10127-3 0  9995","OBJECT_NAME":"STARLINK-1718","CENTER_NAME":"EARTH","SITE":"AFETR","NORAD_CAT_ID":"46674","REV_AT_EPOCH":"5008","CLASSIFICATION_TYPE":"U","EPHEMERIS_TYPE":"0","DECAY_DATE":null,"EPOCH":"2021-09-09T10:21:18.673632","COUNTRY_CODE":"US","RCS_SIZE":"LARGE","INCLINATION":"53.0553","MEAN_MOTION":"15.06402296","RA_OF_ASC_NODE":"54.0065","OBJECT_ID":"2020-073E","TIME_SYSTEM":"UTC","GP_ID":"184384160","FILE":"3111740","ECCENTRICITY":"0.00017400","APOAPSIS":"548.412","MEAN_ANOMALY":"270.6917"},{"TLE_LINE1":"1 46675U 20073F   21252.89221692 -.00000542  00000-0 -17478-4 0  9995","CENTER_NAME":"EARTH","OBJECT_NAME":"STARLINK-1720","BSTAR":"-0.00001747800000","REF_FRAME":"TEME","LAUNCH_DATE":"2020-10-18","MEAN_MOTION_DDOT":"0.0000000000000","TLE_LINE2":"2 46675  53.0554  51.9400 0001688  96.0940 264.0241 15.06392942 49678","SEMIMAJOR_AXIS":"6925.370","PERIOD":"95.593","PERIAPSIS":"546.066","ELEMENT_SET_NO":"999","ARG_OF_PERICENTER":"96.0940","MEAN_MOTION_DOT":"-0.00000542","MEAN_ELEMENT_THEORY":"SGP4","OBJECT_TYPE":"PAYLOAD","ECCENTRICITY":"0.00016880","MEAN_ANOMALY":"264.0241","APOAPSIS":"548.404","GP_ID":"184408362","FILE":"3111873","OBJECT_ID":"2020-073F","TIME_SYSTEM":"UTC","RA_OF_ASC_NODE":"51.9400","MEAN_MOTION":"15.06392942","INCLINATION":"53.0554","EPOCH":"2021-09-09T21:24:47.541888","COUNTRY_CODE":"US","RCS_SIZE":"LARGE","REV_AT_EPOCH":"4967","CLASSIFICATION_TYPE":"U","EPHEMERIS_TYPE":"0","DECAY_DATE":null,"SITE":"AFETR","NORAD_CAT_ID":"46675"},{"FILE":"3111654","GP_ID":"184381691","APOAPSIS":"366.307","MEAN_ANOMALY":"352.2174","ECCENTRICITY":"0.00053540","MEAN_MOTION":"15.68672965","RA_OF_ASC_NODE":"4.8739","OBJECT_ID":"2020-073G","TIME_SYSTEM":"UTC","RCS_SIZE":"LARGE","COUNTRY_CODE":"US","EPOCH":"2021-09-09T08:44:10.391424","INCLINATION":"53.0577","NORAD_CAT_ID":"46676","SITE":"AFETR","DECAY_DATE":null,"EPHEMERIS_TYPE":"0","CLASSIFICATION_TYPE":"U","REV_AT_EPOCH":"5029","REF_FRAME":"TEME","BSTAR":"0.00137790000000","OBJECT_NAME":"STARLINK-1731","CENTER_NAME":"EARTH","TLE_LINE1":"1 46676U 20073G   21252.36400916  .00162636  00000-0  13779-2 0  9995","MEAN_MOTION_DDOT":"0.0000000000000","LAUNCH_DATE":"2020-10-18","PERIAPSIS":"359.089","PERIOD":"91.797","SEMIMAJOR_AXIS":"6740.833","TLE_LINE2":"2 46676  53.0577   4.8739 0005354   7.8926 352.2174 15.68672965 50293","OBJECT_TYPE":"PAYLOAD","MEAN_ELEMENT_THEORY":"SGP4","MEAN_MOTION_DOT":"0.00162636","ARG_OF_PERICENTER":"7.8926","ELEMENT_SET_NO":"999"},{"RCS_SIZE":"LARGE","COUNTRY_CODE":"US","EPOCH":"2021-09-09T14:57:19.156896","INCLINATION":"53.0566","NORAD_CAT_ID":"46677","SITE":"AFETR","DECAY_DATE":null,"EPHEMERIS_TYPE":"0","CLASSIFICATION_TYPE":"U","REV_AT_EPOCH":"4963","FILE":"3111873","GP_ID":"184409364","MEAN_ANOMALY":"249.8477","APOAPSIS":"548.438","ECCENTRICITY":"0.00017590","RA_OF_ASC_NODE":"53.1541","MEAN_MOTION":"15.06397850","TIME_SYSTEM":"UTC","OBJECT_ID":"2020-073H","PERIAPSIS":"546.002","SEMIMAJOR_AXIS":"6925.355","PERIOD":"95.592","TLE_LINE2":"2 46677  53.0566  53.1541 0001759 110.2701 249.8477 15.06397850 49637","OBJECT_TYPE":"PAYLOAD","MEAN_MOTION_DOT":"0.00000370","MEAN_ELEMENT_THEORY":"SGP4","ARG_OF_PERICENTER":"110.2701","ELEMENT_SET_NO":"999","REF_FRAME":"TEME","BSTAR":"0.00004377100000","OBJECT_NAME":"STARLINK-1766","CENTER_NAME":"EARTH","TLE_LINE1":"1 46677U 20073H   21252.62313839  .00000370  00000-0  43771-4 0  9995","MEAN_MOTION_DDOT":"0.0000000000000","LAUNCH_DATE":"2020-10-18"},{"MEAN_MOTION":"15.06409051","RA_OF_ASC_NODE":"32.2087","OBJECT_ID":"2020-073K","TIME_SYSTEM":"UTC","GP_ID":"184409604","FILE":"3111873","ECCENTRICITY":"0.00051470","APOAPSIS":"550.750","MEAN_ANOMALY":"287.8290","SITE":"AFETR","NORAD_CAT_ID":"46679","CLASSIFICATION_TYPE":"U","REV_AT_EPOCH":"4994","EPHEMERIS_TYPE":"0","DECAY_DATE":null,"EPOCH":"2021-09-09T19:51:55.117728","COUNTRY_CODE":"US","RCS_SIZE":"LARGE","INCLINATION":"53.0559","MEAN_MOTION_DDOT":"0.0000000000000","LAUNCH_DATE":"2020-10-18","BSTAR":"-0.00001261700000","REF_FRAME":"TEME","TLE_LINE1":"1 46679U 20073K   21252.82772127 -.00000471  00000-0 -12617-4 0  9997","CENTER_NAME":"EARTH","OBJECT_NAME":"STARLINK-1773","ARG_OF_PERICENTER":"72.3261","MEAN_MOTION_DOT":"-0.00000471","MEAN_ELEMENT_THEORY":"SGP4","OBJECT_TYPE":"PAYLOAD","ELEMENT_SET_NO":"999","PERIAPSIS":"543.621","TLE_LINE2":"2 46679  53.0559  32.2087 0005147  72.3261 287.8290 15.06409051 49944","PERIOD":"95.592","SEMIMAJOR_AXIS":"6925.321"},{"MEAN_MOTION_DDOT":"0.0000000000000","LAUNCH_DATE":"2020-10-18","BSTAR":"0.00019763000000","REF_FRAME":"TEME","TLE_LINE1":"1 46680U 20073L   21252.63097353  .00002664  00000-0  19763-3 0  9991","CENTER_NAME":"EARTH","OBJECT_NAME":"STARLINK-1774","ARG_OF_PERICENTER":"101.6655","MEAN_MOTION_DOT":"0.00002664","MEAN_ELEMENT_THEORY":"SGP4","OBJECT_TYPE":"PAYLOAD","ELEMENT_SET_NO":"999","PERIAPSIS":"545.820","TLE_LINE2":"2 46680  53.0534  68.1012 0001985 101.6655 258.4557 15.06406172 49428","SEMIMAJOR_AXIS":"6925.330","PERIOD":"95.592","RA_OF_ASC_NODE":"68.1012","MEAN_MOTION":"15.06406172","OBJECT_ID":"2020-073L","TIME_SYSTEM":"UTC","GP_ID":"184407863","FILE":"3111873","ECCENTRICITY":"0.00019850","APOAPSIS":"548.569","MEAN_ANOMALY":"258.4557","SITE":"AFETR","NORAD_CAT_ID":"46680","REV_AT_EPOCH":"4942","CLASSIFICATION_TYPE":"U","EPHEMERIS_TYPE":"0","DECAY_DATE":null,"EPOCH":"2021-09-09T15:08:36.112992","COUNTRY_CODE":"US","RCS_SIZE":"LARGE","INCLINATION":"53.0534"},{"RCS_SIZE":"LARGE","COUNTRY_CODE":"US","EPOCH":"2021-09-09T20:48:18.143424","INCLINATION":"53.0568","NORAD_CAT_ID":"46681","SITE":"AFETR","DECAY_DATE":null,"EPHEMERIS_TYPE":"0","CLASSIFICATION_TYPE":"U","REV_AT_EPOCH":"4945","FILE":"3111873","GP_ID":"184408113","MEAN_ANOMALY":"263.3931","APOAPSIS":"548.527","ECCENTRICITY":"0.00018670","MEAN_MOTION":"15.06393418","RA_OF_ASC_NODE":"67.0449","OBJECT_ID":"2020-073M","TIME_SYSTEM":"UTC","PERIAPSIS":"545.941","SEMIMAJOR_AXIS":"6925.369","PERIOD":"95.593","TLE_LINE2":"2 46681  53.0568  67.0449 0001867  96.7271 263.3931 15.06393418 49457","OBJECT_TYPE":"PAYLOAD","MEAN_ELEMENT_THEORY":"SGP4","MEAN_MOTION_DOT":"-0.00000697","ARG_OF_PERICENTER":"96.7271","ELEMENT_SET_NO":"999","REF_FRAME":"TEME","BSTAR":"-0.00002789300000","CENTER_NAME":"EARTH","OBJECT_NAME":"STARLINK-1775","TLE_LINE1":"1 46681U 20073M   21252.86687666 -.00000697  00000-0 -27893-4 0  9999","MEAN_MOTION_DDOT":"0.0000000000000","LAUNCH_DATE":"2020-10-18"},{"ECCENTRICITY":"0.00021340","MEAN_ANOMALY":"273.1103","APOAPSIS":"548.715","GP_ID":"184408865","FILE":"3111873","OBJECT_ID":"2020-073N","TIME_SYSTEM":"UTC","RA_OF_ASC_NODE":"66.9402","MEAN_MOTION":"15.06392423","INCLINATION":"53.0557","EPOCH":"2021-09-09T21:25:27.539040","COUNTRY_CODE":"US","RCS_SIZE":"LARGE","CLASSIFICATION_TYPE":"U","REV_AT_EPOCH":"4946","EPHEMERIS_TYPE":"0","DECAY_DATE":null,"SITE":"AFETR","NORAD_CAT_ID":"46682","TLE_LINE1":"1 46682U 20073N   21252.89267985  .00001064  00000-0  90331-4 0  9995","OBJECT_NAME":"STARLINK-1776","CENTER_NAME":"EARTH","BSTAR":"0.00009033100000","REF_FRAME":"TEME","LAUNCH_DATE":"2020-10-18","MEAN_MOTION_DDOT":"0.0000000000000","TLE_LINE2":"2 46682  53.0557  66.9402 0002134  87.0131 273.1103 15.06392423 49465","SEMIMAJOR_AXIS":"6925.372","PERIOD":"95.593","PERIAPSIS":"545.759","ELEMENT_SET_NO":"999","ARG_OF_PERICENTER":"87.0131","MEAN_MOTION_DOT":"0.00001064","MEAN_ELEMENT_THEORY":"SGP4","OBJECT_TYPE":"PAYLOAD"}];
